GPS BIIR-2  (PRN 13)    
1 24876C 97035A   21073.71090278 -.00000000  00000-0  00000-0 0   732
2 24876  55.4653 173.6068 0047155  56.4240 333.1742  2.00562979    15
GPS BIIR-4  (PRN 20)    
1 26360C 00025A   21073.71090278 -.00000000  00000-0  00000-0 0   735
2 26360  53.7069  97.9285 0058104 167.0857 203.9563  2.00562800    13
GPS BIIR-5  (PRN 28)    
1 26407C 00040A   21073.71090278  .00000000  00000-0  00000-0 0   733
2 26407  55.7931 291.4888 0180361 282.6964  49.2508  2.00564888    17
GPS BIIR-8  (PRN 16)    
1 27663C 03005A   21073.71090278  .00000000  00000-0  00000-0 0   732
2 27663  55.8460 291.2838 0120938  37.0814  60.4915  2.00565225    16
GPS BIIR-9  (PRN 21)    
1 27704C 03010A   21073.71090278 -.00000000  00000-0  00000-0 0   735
2 27704  54.8029  41.9737 0244398 292.4983  18.3805  2.00559808    11
GPS BIIR-10 (PRN 22)    
1 28129C 03058A   21073.71090278 -.00000000  00000-0  00000-0 0   739
2 28129  53.5173 100.5919 0072321 300.6573 310.7150  2.00573800    15
GPS BIIR-11 (PRN 19)    
1 28190C 04009A   21073.71090278  .00000000  00000-0  00000-0 0   733
2 28190  56.2150 352.1412 0088726 103.0010 149.4111  2.00570083    12
GPS BIIR-13 (PRN 02)    
1 28474C 04045A   21073.71090278 -.00000000  00000-0  00000-0 0   739
2 28474  55.1401  41.9421 0205707 271.9552 256.4652  2.00568873    16
GPS BIIRM-1 (PRN 17)    
1 28874C 05038A   21073.71090278  .00000000  00000-0  00000-0 0   735
2 28874  56.3033 349.5492 0136927 269.8909   4.2882  2.00577101    16
GPS BIIRM-2 (PRN 31)    
1 29486C 06042A   21073.71090278  .00000000  00000-0  00000-0 0   731
2 29486  54.7912 227.5819 0099085  13.2866 178.6255  2.00554608    15
GPS BIIRM-3 (PRN 12)    
1 29601C 06052A   21073.71090278  .00000000  00000-0  00000-0 0   731
2 29601  55.8397 290.2078 0082416  67.3164 167.7097  2.00551800    12
GPS BIIRM-4 (PRN 15)    
1 32260C 07047A   21073.71090278 -.00000000  00000-0  00000-0 0   732
2 32260  53.2176 159.5935 0128686  55.1095 313.0453  2.00574258    15
GPS BIIRM-5 (PRN 29)    
1 32384C 07062A   21073.71090278  .00000000  00000-0  00000-0 0   735
2 32384  56.4076 350.2547 0014039 126.4353  10.6981  2.00564689    13
GPS BIIRM-6 (PRN 07)    
1 32711C 08012A   21073.71090278  .00000000  00000-0  00000-0 0   735
2 32711  54.5427 226.6224 0147448 226.0614 206.5642  2.00572794    18
GPS BIIRM-8 (PRN 05)    
1 35752C 09043A   21073.71090278 -.00000000  00000-0  00000-0 0   739
2 35752  54.7485 104.0870 0058099  48.8952  43.0418  2.00544734    14
GPS BIIF-1  (PRN 25)    
1 36585C 10022A   21073.71090278  .00000000  00000-0  00000-0 0   732
2 36585  55.1142 286.0503 0097038  53.7639 148.0686  2.00565967    15
GPS BIIF-2  (PRN 01)    
1 37753C 11036A   21073.71090278 -.00000000  00000-0  00000-0 0   737
2 37753  56.3578  46.6566 0103777  46.2080 242.8368  2.00562773    15
GPS BIIF-3  (PRN 24)    
1 38833C 12053A   21073.71090278  .00000000  00000-0  00000-0 0   736
2 38833  53.5896 222.2080 0108085  41.2180 263.2838  2.00570848    14
GPS BIIF-4  (PRN 27)    
1 39166C 13023A   21073.71090278  .00000000  00000-0  00000-0 0   734
2 39166  55.9516 346.0977 0090959  32.5088   7.8946  2.00563701    11
GPS BIIF-5  (PRN 30)    
1 39533C 14008A   21073.71090278  .00000000  00000-0  00000-0 0   736
2 39533  53.6966 227.6697 0050350 200.0902 199.3964  2.00556454    18
GPS BIIF-6  (PRN 06)    
1 39741C 14026A   21073.71090278 -.00000000  00000-0  00000-0 0   738
2 39741  56.3280  46.1836 0025250 297.9505 261.4919  2.00558347    16
GPS BIIF-7  (PRN 09)    
1 40105C 14045A   21073.71090278 -.00000000  00000-0  00000-0 0   735
2 40105  54.6136 165.1574 0016564 106.9948  31.5616  2.00577913    12
GPS BIIF-8  (PRN 03)    
1 40294C 14068A   21073.71090278 -.00000000  00000-0  00000-0 0   739
2 40294  55.4962 106.1420 0031357  44.7786 181.2751  2.00568047    19
GPS BIIF-9  (PRN 26)    
1 40534C 15013A   21073.71090278  .00000000  00000-0  00000-0 0   736
2 40534  54.0228 283.7183 0057168  14.5038 111.8149  2.00552323    17
GPS BIIF-10 (PRN 08)    
1 40730C 15033A   21073.71090278  .00000000  00000-0  00000-0 0   736
2 40730  55.4616 345.1443 0062840 357.7374  11.2254  2.00576515    10
GPS BIIF-11 (PRN 10)    
1 41019C 15062A   21073.71090278 -.00000000  00000-0  00000-0 0   730
2 41019  55.4902 105.9750 0066669 214.1048 122.6815  2.00563975    15
GPS BIIF-12 (PRN 32)    
1 41328C 16007A   21073.71090278 -.00000000  00000-0  00000-0 0   733
2 41328  54.8430 165.7140 0048728 223.6798  47.3172  2.00566487    17
GPS BIII-1  (PRN 04)    
1 43873C 18109A   21073.71090278 -.00000000  00000-0  00000-0 0   735
2 43873  55.0244 168.0361 0011829 198.9016 328.9103  2.00552329    12
GPS BIII-2  (PRN 18)    
1 44506C 19056A   21073.71090278 -.00000000  00000-0  00000-0 0   731
2 44506  55.4229  47.3929 0012075 183.2040 240.2980  2.00563563    11
GPS BIII-3  (PRN 23)    
1 45854C 20041A   21073.71090278 -.00000000  00000-0  00000-0 0   734
2 45854  55.2019 104.6521 0009512 155.1562 210.1724  2.00566741    10
GPS BIII-4  (PRN 14)    
1 46826C 20078A   21073.71090278  .00000000  00000-0  00000-0 0   733
2 46826  54.8946 288.7193 0003288 158.6073 180.8830  2.00555548    16
